[{"OBJECT_NAME":"STARLINK-3358","OBJECT_ID":"2022-005F","EPOCH":"2026-03-09T22:15:10.403136","MEAN_MOTION":15.0883983,"ECCENTRICITY":0.00012483,"INCLINATION":53.2177,"RA_OF_ASC_NODE":288.0056,"ARG_OF_PERICENTER":84.5569,"MEAN_ANOMALY":275.5566,"EPHEMERIS_TYPE":0,"CLASSIFICATION_TYPE":"U","NORAD_CAT_ID":51109,"ELEMENT_SET_NO":999,"REV_AT_EPOCH":22868,"BSTAR":2.5979923e-5,"MEAN_MOTION_DOT":1.26e-6,"MEAN_MOTION_DDOT":0},{"OBJECT_NAME":"EXPLORER 7","OBJECT_ID":"1959-009A","EPOCH":"2026-03-09T22:10:28.426368","MEAN_MOTION":15.26652664,"ECCENTRICITY":0.00808181,"INCLINATION":50.2405,"RA_OF_ASC_NODE":230.2318,"ARG_OF_PERICENTER":85.1115,"MEAN_ANOMALY":275.9066,"EPHEMERIS_TYPE":0,"CLASSIFICATION_TYPE":"U","NORAD_CAT_ID":22,"ELEMENT_SET_NO":999,"REV_AT_EPOCH":78517,"BSTAR":0.00064628265,"MEAN_MOTION_DOT":0.00018598,"MEAN_MOTION_DDOT":0}]
